{
  "type": "FeatureCollection",
  "features": [
    {
      "type": "Feature",
      "properties": {
        "norad_id": 66610,
        "name": "STARLINK-35680",
        "group": "last-30-days",
        "lat": 29.88394645391139,
        "lon": -53.01180472062121,
        "alt_km": 410.90464116504427,
        "timestamp": "2025-12-17T10:52:53.099913+00:00",
        "meta_object_name": "STARLINK-35680",
        "meta_object_id": "2025-270Y",
        "meta_epoch": "2025-12-16T21:56:35.329920",
        "meta_mean_motion": 15.50582996,
        "meta_eccentricity": 0.00015804,
        "meta_inclination": 42.9984,
        "meta_ra_of_asc_node": 168.2191,
        "meta_arg_of_pericenter": 265.3367,
        "meta_mean_anomaly": 94.7313,
        "meta_ephemeris_type": 0,
        "meta_classification_type": "U",
        "meta_norad_cat_id": 66610,
        "meta_element_set_no": 999,
        "meta_rev_at_epoch": 510,
        "meta_bstar": 0.00071160644,
        "meta_mean_motion_dot": 0.00041633,
        "meta_mean_motion_ddot": 0,
        "tle_line1": "1 66610U 25270Y   25350.91429780  .00041633  00000+0  71161-3 0  9995",
        "tle_line2": "2 66610  42.9984 168.2191 0001580 265.3367  94.7313 15.50582996  5104"
      },
      "geometry": {
        "type": "Point",
        "coordinates": [
          -53.01180472062121,
          29.88394645391139
        ]
      }
    },
    {
      "type": "Feature",
      "properties": {
        "norad_id": 66611,
        "name": "STARLINK-35583",
        "group": "last-30-days",
        "lat": 28.83888093497848,
        "lon": -51.16350343749661,
        "alt_km": 411.0164964917458,
        "timestamp": "2025-12-17T10:52:53.099923+00:00",
        "meta_object_name": "STARLINK-35583",
        "meta_object_id": "2025-270Z",
        "meta_epoch": "2025-12-16T21:56:05.680896",
        "meta_mean_motion": 15.50584116,
        "meta_eccentricity": 0.00017079,
        "meta_inclination": 42.9987,
        "meta_ra_of_asc_node": 168.2163,
        "meta_arg_of_pericenter": 260.5009,
        "meta_mean_anomaly": 99.5659,
        "meta_ephemeris_type": 0,
        "meta_classification_type": "U",
        "meta_norad_cat_id": 66611,
        "meta_element_set_no": 999,
        "meta_rev_at_epoch": 510,
        "meta_bstar": 0.00079760834,
        "meta_mean_motion_dot": 0.00046739,
        "meta_mean_motion_ddot": 0,
        "tle_line1": "1 66611U 25270Z   25350.91395464  .00046739  00000+0  79761-3 0  9993",
        "tle_line2": "2 66611  42.9987 168.2163 0001707 260.5009  99.5659 15.50584116  5100"
      },
      "geometry": {
        "type": "Point",
        "coordinates": [
          -51.16350343749661,
          28.83888093497848
        ]
      }
    },
    {
      "type": "Feature",
      "properties": {
        "norad_id": 66612,
        "name": "STARLINK-36039",
        "group": "last-30-days",
        "lat": -20.070336458135298,
        "lon": 142.37744846382938,
        "alt_km": 444.98881032190275,
        "timestamp": "2025-12-17T10:52:53.099933+00:00",
        "meta_object_name": "STARLINK-36039",
        "meta_object_id": "2025-270AA",
        "meta_epoch": "2025-12-16T22:00:03.000096",
        "meta_mean_motion": 15.40652165,
        "meta_eccentricity": 0.00018795,
        "meta_inclination": 42.9993,
        "meta_ra_of_asc_node": 168.5555,
        "meta_arg_of_pericenter": 282.2706,
        "meta_mean_anomaly": 307.2746,
        "meta_ephemeris_type": 0,
        "meta_classification_type": "U",
        "meta_norad_cat_id": 66612,
        "meta_element_set_no": 999,
        "meta_rev_at_epoch": 507,
        "meta_bstar": 0.0018536655,
        "meta_mean_motion_dot": 0.00077799,
        "meta_mean_motion_ddot": 0,
        "tle_line1": "1 66612U 25270AA  25350.91670139  .00077799  00000+0  18537-2 0  9992",
        "tle_line2": "2 66612  42.9993 168.5555 0001879 282.2706 307.2746 15.40652165  5072"
      },
      "geometry": {
        "type": "Point",
        "coordinates": [
          142.37744846382938,
          -20.070336458135298
        ]
      }
    },
    {
      "type": "Feature",
      "properties": {
        "norad_id": 66613,
        "name": "STARLINK-36037",
        "group": "last-30-days",
        "lat": -3.6494953761843116,
        "lon": 161.47694228416125,
        "alt_km": 443.8278954175539,
        "timestamp": "2025-12-17T10:52:53.099949+00:00",
        "meta_object_name": "STARLINK-36037",
        "meta_object_id": "2025-270AB",
        "meta_epoch": "2025-12-16T22:00:03.000096",
        "meta_mean_motion": 15.40651479,
        "meta_eccentricity": 0.00014349,
        "meta_inclination": 42.9991,
        "meta_ra_of_asc_node": 168.4953,
        "meta_arg_of_pericenter": 282.9943,
        "meta_mean_anomaly": 331.4299,
        "meta_ephemeris_type": 0,
        "meta_classification_type": "U",
        "meta_norad_cat_id": 66613,
        "meta_element_set_no": 999,
        "meta_rev_at_epoch": 507,
        "meta_bstar": 0.0018052556,
        "meta_mean_motion_dot": 0.00075736,
        "meta_mean_motion_ddot": 0,
        "tle_line1": "1 66613U 25270AB  25350.91670139  .00075736  00000+0  18053-2 0  9995",
        "tle_line2": "2 66613  42.9991 168.4953 0001434 282.9943 331.4299 15.40651479  5078"
      },
      "geometry": {
        "type": "Point",
        "coordinates": [
          161.47694228416125,
          -3.6494953761843116
        ]
      }
    },
    {
      "type": "Feature",
      "properties": {
        "norad_id": 66614,
        "name": "STARLINK-36040",
        "group": "last-30-days",
        "lat": 40.72441829073654,
        "lon": -82.36853286854712,
        "alt_km": 437.9227339446479,
        "timestamp": "2025-12-17T10:52:53.099959+00:00",
        "meta_object_name": "STARLINK-36040",
        "meta_object_id": "2025-270AC",
        "meta_epoch": "2025-12-16T22:00:03.000096",
        "meta_mean_motion": 15.43995156,
        "meta_eccentricity": 0.00016977,
        "meta_inclination": 42.9988,
        "meta_ra_of_asc_node": 168.232,
        "meta_arg_of_pericenter": 292.8848,
        "meta_mean_anomaly": 70.1787,
        "meta_ephemeris_type": 0,
        "meta_classification_type": "U",
        "meta_norad_cat_id": 66614,
        "meta_element_set_no": 999,
        "meta_rev_at_epoch": 491,
        "meta_bstar": -0.062402733,
        "meta_mean_motion_dot": -0.02567074,
        "meta_mean_motion_ddot": 0,
        "tle_line1": "1 66614U 25270AC  25350.91670139 -.02567074  00000+0 -62403-1 0  9998",
        "tle_line2": "2 66614  42.9988 168.2320 0001697 292.8848  70.1787 15.43995156  4913"
      },
      "geometry": {
        "type": "Point",
        "coordinates": [
          -82.36853286854712,
          40.72441829073654
        ]
      }
    },
    {
      "type": "Feature",
      "properties": {
        "norad_id": 66615,
        "name": "STARLINK-35988",
        "group": "last-30-days",
        "lat": 21.102425900549026,
        "lon": -170.22247244752603,
        "alt_km": 441.2631809480781,
        "timestamp": "2025-12-17T10:52:53.099969+00:00",
        "meta_object_name": "STARLINK-35988",
        "meta_object_id": "2025-270AD",
        "meta_epoch": "2025-12-16T22:00:03.000096",
        "meta_mean_motion": 15.40643927,
        "meta_eccentricity": 0.00013554,
        "meta_inclination": 42.9989,
        "meta_ra_of_asc_node": 168.4049,
        "meta_arg_of_pericenter": 254.8956,
        "meta_mean_anomaly": 36.7667,
        "meta_ephemeris_type": 0,
        "meta_classification_type": "U",
        "meta_norad_cat_id": 66615,
        "meta_element_set_no": 999,
        "meta_rev_at_epoch": 491,
        "meta_bstar": 0.0018242884,
        "meta_mean_motion_dot": 0.00076527,
        "meta_mean_motion_ddot": 0,
        "tle_line1": "1 66615U 25270AD  25350.91670139  .00076527  00000+0  18243-2 0  9997",
        "tle_line2": "2 66615  42.9989 168.4049 0001355 254.8956  36.7667 15.40643927  4912"
      },
      "geometry": {
        "type": "Point",
        "coordinates": [
          -170.22247244752603,
          21.102425900549026
        ]
      }
    },
    {
      "type": "Feature",
      "properties": {
        "norad_id": 66616,
        "name": "STARLINK-35391",
        "group": "last-30-days",
        "lat": 23.050686530782823,
        "lon": -42.13969039330908,
        "alt_km": 411.54738847320095,
        "timestamp": "2025-12-17T10:52:53.099979+00:00",
        "meta_object_name": "STARLINK-35391",
        "meta_object_id": "2025-270AE",
        "meta_epoch": "2025-12-15T22:42:15.874848",
        "meta_mean_motion": 15.50586233,
        "meta_eccentricity": 0.00017552,
        "meta_inclination": 42.9989,
        "meta_ra_of_asc_node": 173.8523,
        "meta_arg_of_pericenter": 256.7172,
        "meta_mean_anomaly": 103.3493,
        "meta_ephemeris_type": 0,
        "meta_classification_type": "U",
        "meta_norad_cat_id": 66616,
        "meta_element_set_no": 999,
        "meta_rev_at_epoch": 495,
        "meta_bstar": 0.00084717563,
        "meta_mean_motion_dot": 0.00049688,
        "meta_mean_motion_ddot": 0,
        "tle_line1": "1 66616U 25270AE  25349.94601707  .00049688  00000+0  84718-3 0  9993",
        "tle_line2": "2 66616  42.9989 173.8523 0001755 256.7172 103.3493 15.50586233  4954"
      },
      "geometry": {
        "type": "Point",
        "coordinates": [
          -42.13969039330908,
          23.050686530782823
        ]
      }
    }
  ]
}